STARLINK-30573          
1 58058U 23158H   26068.24978116  .00001415  00000+0  60948-4 0  9996
2 58058  43.0041  29.4484 0001533 272.0241  88.0435 15.27573073133501
FLOCK 4G-8              
1 62613U 25009E   26068.72381419  .00013559  00000+0  50438-3 0  9996
2 62613  97.4045 151.2834 0003050 315.2538  44.8455 15.27623414 63721
